STARLINK-31140          
1 58767U 24011C   25202.58334491 -.00014135  00000+0 -47817-3 0  9994
2 58767  53.1600   6.9555 0001344  79.4507 132.7392 15.29373794 84878
STARLINK-31145          
1 58768U 24011D   25202.18695368  .00009660  00000+0  50403-3 0  9994
2 58768  53.1583   9.1605 0001586  68.5551 291.5613 15.16574234 84706
STARLINK-31146          
1 58769U 24011E   25202.25001157  .00038354  00000+0  13371-2 0  9994
2 58769  53.1607   8.4676 0001197  66.3806 127.9426 15.29295377 84831
STARLINK-31143          
1 58770U 24011F   25202.25001157  .00049275  00000+0  17108-2 0  9992
2 58770  53.1599   8.5069 0001630  84.0413  88.1129 15.29313724 84715
STARLINK-31135          
1 58771U 24011G   25201.45387838 -.00000292  00000+0  22477-5 0  9992
2 58771  53.1623  10.2983 0001133 100.7244 259.3885 15.30187340 84744
STARLINK-31136          
1 58772U 24011H   25202.58334491  .02447809  00000+0  81333-1 0  9997
2 58772  53.1593   7.1221 0001886  98.4299  26.7524 15.27236888 84866
STARLINK-31073          
1 58773U 24011J   25202.58334491  .02433170  00000+0  83919-1 0  9996
2 58773  53.1592   7.1753 0001642 100.3428 359.4928 15.26015244 84766
STARLINK-31122          
1 58774U 24011K   25202.58334491  .02457703  00000+0  84370-1 0  9997
2 58774  53.1602   7.1560 0001715 107.8795 358.5988 15.26135358 84861
STARLINK-31123          
1 58775U 24011L   25202.58334491  .00072765  00000+0  25258-2 0  9998
2 58775  53.1612   6.9250 0002239  97.1054 128.8307 15.29142217 84764
STARLINK-31117          
1 58776U 24011M   25202.25001157  .01303429  00000+0  52276-1 0  9997
2 58776  53.1645   8.7697 0001406  81.1915 312.5223 15.21864168 84701
STARLINK-31132          
1 58777U 24011N   25201.91711203 -.00000565  00000+0 -69477-5 0  9991
2 58777  53.1597 280.0955 0001026  93.5002 266.6116 15.30190998 86077
STARLINK-31120          
1 58778U 24011P   25200.20097261  .00015216  00000+0  88514-3 0  9992
2 58778  53.1621  18.0878 0001915 217.1836 142.9024 15.12254399 84523
STARLINK-31142          
1 58779U 24011Q   25202.58334491  .02018863  00000+0  82065-1 0  9991
2 58779  53.1593   7.1987 0001858  58.6098  25.9513 15.20522128 84863
STARLINK-31099          
1 58781U 24011S   25199.98426267  .00095254  00000+0  52986-2 0  9993
2 58781  53.1605  18.8769 0001987  73.1228 286.9982 15.12873817 84490
STARLINK-31060          
1 58782U 24011T   25202.41901429 -.00006988  00000+0 -16481-3 0  9994
2 58782  53.1592 241.8238 0001232 103.5920 256.5222 15.39633576 86537
STARLINK-31047          
1 58783U 24011U   25202.15482046  .00000737  00000+0  37011-4 0  9992
2 58783  53.1596 353.5885 0001248  79.8770 280.2371 15.30194528 84915
STARLINK-31039          
1 58784U 24011V   25202.58334491  .01972057  00000+0  81315-1 0  9997
2 58784  53.1622   7.0802 0002135  99.2436  44.4828 15.20115526 84767
STARLINK-31034          
1 58785U 24011W   25201.51422385 -.00001891  00000+0 -51734-4 0  9995
2 58785  53.1601 269.7463 0001249  90.4468 269.6675 15.30194285 86187
STARLINK-31024          
1 58786U 24011X   25201.72674175  .00002193  00000+0  86165-4 0  9995
2 58786  53.1615   9.1477 0001378  79.8898 280.2258 15.30193298 84788
STARLINK-31189          
1 58787U 24012A   25202.24401037 -.00000995  00000+0 -26629-4 0  9999
2 58787  43.0003  31.9717 0000951 275.6511  84.4232 15.27577587 85704
STARLINK-31185          
1 58788U 24012B   25201.94354381 -.00009441  00000+0 -35103-3 0  9996
2 58788  43.0019  34.0242 0001535 278.4974  81.5703 15.25954664 85795
STARLINK-31166          
1 58789U 24012C   25201.82832802  .00003594  00000+0  14718-3 0  9993
2 58789  43.0013  33.9919 0001148 267.2412  92.8308 15.25902881 85781
STARLINK-31187          
1 58790U 24012D   25201.93903412 -.00000342  00000+0 -32382-5 0  9992
2 58790  43.0012  33.9884 0001450 278.5091  81.5596 15.25905331 85795
STARLINK-31162          
1 58791U 24012E   25201.60554617  .00001406  00000+0  60602-4 0  9991
2 58791  43.0057  35.7763 0002832 296.7886  63.2676 15.27587699 85768
STARLINK-31184          
1 58793U 24012G   25201.92735830  .00000374  00000+0  23126-4 0  9999
2 58793  43.0012  33.8953 0001385 271.0878  88.9815 15.27572684 85790
STARLINK-31192          
1 58794U 24012H   25202.21429629 -.00000348  00000+0 -34715-5 0  9999
2 58794  43.0030  31.7306 0001202 270.3461  89.7252 15.25906105 85700
STARLINK-31161          
1 58795U 24012J   25201.92772319  .00000404  00000+0  25306-4 0  9990
2 58795  43.0019  33.8945 0001226 262.5125  97.5587 15.25905903 85800
STARLINK-31195          
1 58796U 24012K   25202.25274884  .00000125  00000+0  14623-4 0  9992
2 58796  43.0022  32.0314 0001230 264.2429  95.8282 15.25912308 85852
STARLINK-31193          
1 58797U 24012L   25201.59592262 -.00004315  00000+0 -15500-3 0  9993
2 58797  43.0060  35.7036 0001311 284.1956  75.8749 15.25949665 85753
STARLINK-31168          
1 58798U 24012M   25201.59364646  .00000405  00000+0  25316-4 0  9998
2 58798  43.0024  35.6810 0001029 263.7798  96.2936 15.25902326 85743
