OBJECT_NAME,OBJECT_ID,EPOCH,MEAN_MOTION,ECCENTRICITY,INCLINATION,RA_OF_ASC_NODE,ARG_OF_PERICENTER,MEAN_ANOMALY,EPHEMERIS_TYPE,CLASSIFICATION_TYPE,NORAD_CAT_ID,ELEMENT_SET_NO,REV_AT_EPOCH,BSTAR,MEAN_MOTION_DOT,MEAN_MOTION_DDOT
STARLINK-31140,2024-011C,2025-07-21T14:00:01.000224,15.29373794,.0001344,53.1600,6.9555,79.4507,132.7392,0,U,58767,999,8487,-.47817E-3,-.14135E-3,0
STARLINK-31145,2024-011D,2025-07-21T04:29:12.797952,15.16574234,.0001586,53.1583,9.1605,68.5551,291.5613,0,U,58768,999,8470,.50403E-3,.966E-4,0
STARLINK-31146,2024-011E,2025-07-21T06:00:00.999648,15.29295377,.0001197,53.1607,8.4676,66.3806,127.9426,0,U,58769,999,8483,.13371E-2,.38354E-3,0
STARLINK-31143,2024-011F,2025-07-21T06:00:00.999648,15.29313724,.000163,53.1599,8.5069,84.0413,88.1129,0,U,58770,999,8471,.17108E-2,.49275E-3,0
STARLINK-31135,2024-011G,2025-07-20T10:53:35.092032,15.30187340,.0001133,53.1623,10.2983,100.7244,259.3885,0,U,58771,999,8474,.22477E-5,-.292E-5,0
STARLINK-31136,2024-011H,2025-07-21T14:00:01.000224,15.27236888,.0001886,53.1593,7.1221,98.4299,26.7524,0,U,58772,999,8486,.81333E-1,.2447809E-1,0
STARLINK-31073,2024-011J,2025-07-21T14:00:01.000224,15.26015244,.0001642,53.1592,7.1753,100.3428,359.4928,0,U,58773,999,8476,.83919E-1,.243317E-1,0
STARLINK-31122,2024-011K,2025-07-21T14:00:01.000224,15.26135358,.0001715,53.1602,7.1560,107.8795,358.5988,0,U,58774,999,8486,.8437E-1,.2457703E-1,0
STARLINK-31123,2024-011L,2025-07-21T14:00:01.000224,15.29142217,.0002239,53.1612,6.9250,97.1054,128.8307,0,U,58775,999,8476,.25258E-2,.72765E-3,0
STARLINK-31117,2024-011M,2025-07-21T06:00:00.999648,15.21864168,.0001406,53.1645,8.7697,81.1915,312.5223,0,U,58776,999,8470,.52276E-1,.1303429E-1,0
STARLINK-31132,2024-011N,2025-07-20T22:00:38.479392,15.30190998,.0001026,53.1597,280.0955,93.5002,266.6116,0,U,58777,999,8607,-.69477E-5,-.565E-5,0
STARLINK-31120,2024-011P,2025-07-19T04:49:24.033504,15.12254399,.0001915,53.1621,18.0878,217.1836,142.9024,0,U,58778,999,8452,.88514E-3,.15216E-3,0
STARLINK-31142,2024-011Q,2025-07-21T14:00:01.000224,15.20522128,.0001858,53.1593,7.1987,58.6098,25.9513,0,U,58779,999,8486,.82065E-1,.2018863E-1,0
STARLINK-31099,2024-011S,2025-07-18T23:37:20.294688,15.12873817,.0001987,53.1605,18.8769,73.1228,286.9982,0,U,58781,999,8449,.52986E-2,.95254E-3,0
STARLINK-31060,2024-011T,2025-07-21T10:03:22.834656,15.39633576,.0001232,53.1592,241.8238,103.5920,256.5222,0,U,58782,999,8653,-.16481E-3,-.6988E-4,0
STARLINK-31047,2024-011U,2025-07-21T03:42:56.487744,15.30194528,.0001248,53.1596,353.5885,79.8770,280.2371,0,U,58783,999,8491,.37011E-4,.737E-5,0
STARLINK-31039,2024-011V,2025-07-21T14:00:01.000224,15.20115526,.0002135,53.1622,7.0802,99.2436,44.4828,0,U,58784,999,8476,.81315E-1,.1972057E-1,0
STARLINK-31034,2024-011W,2025-07-20T12:20:28.940640,15.30194285,.0001249,53.1601,269.7463,90.4468,269.6675,0,U,58785,999,8618,-.51734E-4,-.1891E-4,0
STARLINK-31024,2024-011X,2025-07-20T17:26:30.487200,15.30193298,.0001378,53.1615,9.1477,79.8898,280.2258,0,U,58786,999,8478,.86165E-4,.2193E-4,0
STARLINK-31189,2024-012A,2025-07-21T05:51:22.495968,15.27577587,.0000951,43.0003,31.9717,275.6511,84.4232,0,U,58787,999,8570,-.26629E-4,-.995E-5,0
STARLINK-31185,2024-012B,2025-07-20T22:38:42.185184,15.25954664,.0001535,43.0019,34.0242,278.4974,81.5703,0,U,58788,999,8579,-.35103E-3,-.9441E-4,0
STARLINK-31166,2024-012C,2025-07-20T19:52:47.540928,15.25902881,.0001148,43.0013,33.9919,267.2412,92.8308,0,U,58789,999,8578,.14718E-3,.3594E-4,0
STARLINK-31187,2024-012D,2025-07-20T22:32:12.547968,15.25905331,.000145,43.0012,33.9884,278.5091,81.5596,0,U,58790,999,8579,-.32382E-5,-.342E-5,0
STARLINK-31162,2024-012E,2025-07-20T14:31:59.189088,15.27587699,.0002832,43.0057,35.7763,296.7886,63.2676,0,U,58791,999,8576,.60602E-4,.1406E-4,0
STARLINK-31184,2024-012G,2025-07-20T22:15:23.757120,15.27572684,.0001385,43.0012,33.8953,271.0878,88.9815,0,U,58793,999,8579,.23126E-4,.374E-5,0
STARLINK-31192,2024-012H,2025-07-21T05:08:35.199456,15.25906105,.0001202,43.0030,31.7306,270.3461,89.7252,0,U,58794,999,8570,-.34715E-5,-.348E-5,0
STARLINK-31161,2024-012J,2025-07-20T22:15:55.283616,15.25905903,.0001226,43.0019,33.8945,262.5125,97.5587,0,U,58795,999,8580,.25306E-4,.404E-5,0
STARLINK-31195,2024-012K,2025-07-21T06:03:57.499776,15.25912308,.000123,43.0022,32.0314,264.2429,95.8282,0,U,58796,999,8585,.14623E-4,.125E-5,0
STARLINK-31193,2024-012L,2025-07-20T14:18:07.714368,15.25949665,.0001311,43.0060,35.7036,284.1956,75.8749,0,U,58797,999,8575,-.155E-3,-.4315E-4,0
STARLINK-31168,2024-012M,2025-07-20T14:14:51.054144,15.25902326,.0001029,43.0024,35.6810,263.7798,96.2936,0,U,58798,999,8574,.25316E-4,.405E-5,0
